     3.03           N: GNSS NAV DATA    M: Mixed            RINEX VERSION / TYPE
sbp2rinex v2.2 (RTKL                    20210512 233342 UTC PGM / RUN BY / DATE 
log: corrections-conus-CAFT00USA-prod-l1l5-rtk-osr_202104291COMMENT             
format: Swift Navigation SBP, option: CONVBASE,OBSALL,EPHALLCOMMENT             
                                                            END OF HEADER       
G18 2021  4 29 20  0  0  .351290684193E-03 -.454747350886E-12  .000000000000E+00
      .520000000000E+02 -.143593750000E+03  .417553107049E-08  .135887671330E+01
     -.732019543648E-05  .133234367240E-02  .954046845436E-05  .515367700577E+04
      .417600000000E+06  .484287738800E-07 -.292539595917E+01 -.465661287308E-07
      .968118231930E+00  .195281250000E+03  .293596100725E+01 -.794604527039E-08
     -.188222125921E-09  .200000000000E+01  .215500000000E+04  .100000000000E+01
      .280000000000E+01  .000000000000E+00 -.838190317154E-08  .564000000000E+03
      .414431000000E+06  .400000000000E+01
G18 2021  4 29 20 59 44  .351289287210E-03 -.454747350886E-12  .000000000000E+00
      .530000000000E+02 -.142468750000E+03  .421481842125E-08  .188151114744E+01
     -.721774995327E-05  .133239116985E-02  .975281000137E-05  .515367729568E+04
      .421184000000E+06  .949949026108E-07 -.292542474940E+01  .502914190292E-07
      .968117648226E+00  .194406250000E+03  .293608111575E+01 -.795783147562E-08
     -.122862260563E-09  .200000000000E+01  .215500000000E+04  .100000000000E+01
      .200000000000E+01  .000000000000E+00 -.838190317154E-08  .565000000000E+03
      .414431000000E+06  .400000000000E+01
G18 2021  4 29 20  0  0  .351290684193E-03 -.454747350886E-12  .000000000000E+00
      .520000000000E+02 -.143593750000E+03  .417553107049E-08  .135887671330E+01
     -.732019543648E-05  .133234367240E-02  .954046845436E-05  .515367700577E+04
      .417600000000E+06  .484287738800E-07 -.292539595917E+01 -.465661287308E-07
      .968118231930E+00  .195281250000E+03  .293596100725E+01 -.794604527039E-08
     -.188222125921E-09  .200000000000E+01  .215500000000E+04  .100000000000E+01
      .280000000000E+01  .000000000000E+00 -.838190317154E-08  .564000000000E+03
      .414463000000E+06  .400000000000E+01
G18 2021  4 29 20 59 44  .351289287210E-03 -.454747350886E-12  .000000000000E+00
      .530000000000E+02 -.142468750000E+03  .421481842125E-08  .188151114744E+01
     -.721774995327E-05  .133239116985E-02  .975281000137E-05  .515367729568E+04
      .421184000000E+06  .949949026108E-07 -.292542474940E+01  .502914190292E-07
      .968117648226E+00  .194406250000E+03  .293608111575E+01 -.795783147562E-08
     -.122862260563E-09  .200000000000E+01  .215500000000E+04  .100000000000E+01
      .200000000000E+01  .000000000000E+00 -.838190317154E-08  .565000000000E+03
      .414466000000E+06  .400000000000E+01
G18 2021  4 29 20  0  0  .351290684193E-03 -.454747350886E-12  .000000000000E+00
      .520000000000E+02 -.143593750000E+03  .417553107049E-08  .135887671330E+01
     -.732019543648E-05  .133234367240E-02  .954046845436E-05  .515367700577E+04
      .417600000000E+06  .484287738800E-07 -.292539595917E+01 -.465661287308E-07
      .968118231930E+00  .195281250000E+03  .293596100725E+01 -.794604527039E-08
     -.188222125921E-09  .200000000000E+01  .215500000000E+04  .100000000000E+01
      .280000000000E+01  .000000000000E+00 -.838190317154E-08  .564000000000E+03
      .414495000000E+06  .400000000000E+01
G18 2021  4 29 20 59 44  .351289287210E-03 -.454747350886E-12  .000000000000E+00
      .530000000000E+02 -.142468750000E+03  .421481842125E-08  .188151114744E+01
     -.721774995327E-05  .133239116985E-02  .975281000137E-05  .515367729568E+04
      .421184000000E+06  .949949026108E-07 -.292542474940E+01  .502914190292E-07
      .968117648226E+00  .194406250000E+03  .293608111575E+01 -.795783147562E-08
     -.122862260563E-09  .200000000000E+01  .215500000000E+04  .100000000000E+01
      .200000000000E+01  .000000000000E+00 -.838190317154E-08  .565000000000E+03
      .414496000000E+06  .400000000000E+01
G18 2021  4 29 20  0  0  .351290684193E-03 -.454747350886E-12  .000000000000E+00
      .520000000000E+02 -.143593750000E+03  .417553107049E-08  .135887671330E+01
     -.732019543648E-05  .133234367240E-02  .954046845436E-05  .515367700577E+04
      .417600000000E+06  .484287738800E-07 -.292539595917E+01 -.465661287308E-07
      .968118231930E+00  .195281250000E+03  .293596100725E+01 -.794604527039E-08
     -.188222125921E-09  .200000000000E+01  .215500000000E+04  .100000000000E+01
      .280000000000E+01  .000000000000E+00 -.838190317154E-08  .564000000000E+03
      .414527000000E+06  .400000000000E+01
G18 2021  4 29 20 59 44  .351289287210E-03 -.454747350886E-12  .000000000000E+00
      .530000000000E+02 -.142468750000E+03  .421481842125E-08  .188151114744E+01
     -.721774995327E-05  .133239116985E-02  .975281000137E-05  .515367729568E+04
      .421184000000E+06  .949949026108E-07 -.292542474940E+01  .502914190292E-07
      .968117648226E+00  .194406250000E+03  .293608111575E+01 -.795783147562E-08
     -.122862260563E-09  .200000000000E+01  .215500000000E+04  .100000000000E+01
      .200000000000E+01  .000000000000E+00 -.838190317154E-08  .565000000000E+03
      .414531000000E+06  .400000000000E+01
G18 2021  4 29 20  0  0  .351290684193E-03 -.454747350886E-12  .000000000000E+00
      .520000000000E+02 -.143593750000E+03  .417553107049E-08  .135887671330E+01
     -.732019543648E-05  .133234367240E-02  .954046845436E-05  .515367700577E+04
      .417600000000E+06  .484287738800E-07 -.292539595917E+01 -.465661287308E-07
      .968118231930E+00  .195281250000E+03  .293596100725E+01 -.794604527039E-08
     -.188222125921E-09  .200000000000E+01  .215500000000E+04  .100000000000E+01
      .280000000000E+01  .000000000000E+00 -.838190317154E-08  .564000000000E+03
      .414559000000E+06  .400000000000E+01
G18 2021  4 29 20 59 44  .351289287210E-03 -.454747350886E-12  .000000000000E+00
      .530000000000E+02 -.142468750000E+03  .421481842125E-08  .188151114744E+01
     -.721774995327E-05  .133239116985E-02  .975281000137E-05  .515367729568E+04
      .421184000000E+06  .949949026108E-07 -.292542474940E+01  .502914190292E-07
      .968117648226E+00  .194406250000E+03  .293608111575E+01 -.795783147562E-08
     -.122862260563E-09  .200000000000E+01  .215500000000E+04  .100000000000E+01
      .200000000000E+01  .000000000000E+00 -.838190317154E-08  .565000000000E+03
      .414562000000E+06  .400000000000E+01
G18 2021  4 29 20  0  0  .351290684193E-03 -.454747350886E-12  .000000000000E+00
      .520000000000E+02 -.143593750000E+03  .417553107049E-08  .135887671330E+01
     -.732019543648E-05  .133234367240E-02  .954046845436E-05  .515367700577E+04
      .417600000000E+06  .484287738800E-07 -.292539595917E+01 -.465661287308E-07
      .968118231930E+00  .195281250000E+03  .293596100725E+01 -.794604527039E-08
     -.188222125921E-09  .200000000000E+01  .215500000000E+04  .100000000000E+01
      .280000000000E+01  .000000000000E+00 -.838190317154E-08  .564000000000E+03
      .414591000000E+06  .400000000000E+01
G18 2021  4 29 20 59 44  .351289287210E-03 -.454747350886E-12  .000000000000E+00
      .530000000000E+02 -.142468750000E+03  .421481842125E-08  .188151114744E+01
     -.721774995327E-05  .133239116985E-02  .975281000137E-05  .515367729568E+04
      .421184000000E+06  .949949026108E-07 -.292542474940E+01  .502914190292E-07
      .968117648226E+00  .194406250000E+03  .293608111575E+01 -.795783147562E-08
     -.122862260563E-09  .200000000000E+01  .215500000000E+04  .100000000000E+01
      .200000000000E+01  .000000000000E+00 -.838190317154E-08  .565000000000E+03
      .414596000000E+06  .400000000000E+01
R19 2021  4 29 19 15  0 -.141744501889E-03 -.909494701773E-12  .702000000000E+05
      .553804248047E+04  .192658710480E+01  .000000000000E+00  .000000000000E+00
     -.947446875000E+04  .250407791138E+01 -.465661287308E-08  .300000000000E+01
      .230230034180E+05  .567171096802E+00  .000000000000E+00  .240000000000E+04
C30 2021  4 29 19  0  0  .464040203951E-03  .326938476292E-11  .000000000000E+00
      .100000000000E+01 -.138062500000E+03  .408052711319E-08 -.194552004105E+01
     -.667152926326E-05  .547345029190E-03  .132760033011E-05  .528262159729E+04
      .414000000000E+06  .335276126862E-07  .264268445538E+01  .675208866596E-07
      .965465246086E+00  .337390625000E+03  .411969176993E+00 -.732209070875E-08
     -.293583657509E-09  .120000000000E+02  .799000000000E+03  .100000000000E+01
      .200000000000E+01  .000000000000E+00 -.979999992268E-08 -.979999992268E-08
      .414603000000E+06  .100000000000E+01
G12 2021  4 29 20  0  0 -.344263389707E-04 -.511590769747E-11  .000000000000E+00
      .670000000000E+02  .135687500000E+03  .434196657462E-08 -.230824542494E+00
      .702403485775E-05  .846971594729E-02  .594928860664E-05  .515375406265E+04
      .417600000000E+06 -.260770320892E-07  .131270951738E+01  .152736902237E-06
      .973812188512E+00  .279968750000E+03  .120576799678E+01 -.818248369043E-08
      .333228166005E-09  .200000000000E+01  .215500000000E+04  .100000000000E+01
      .200000000000E+01  .000000000000E+00 -.125728547573E-07  .670000000000E+02
      .414617000000E+06  .400000000000E+01
R20 2021  4 29 19 15  0 -.482220202684E-04 -.909494701773E-12  .702000000000E+05
     -.947544335937E+04  .830425262451E+00  .186264514923E-08  .000000000000E+00
     -.205048583984E+05  .140912342072E+01 -.465661287308E-08  .200000000000E+01
      .118071791992E+05  .311878681183E+01  .931322574615E-09  .240000000000E+04
